{ "type": "FeatureCollection", "features": [
  { "type": "Feature", "geometry": { "type": "Polygon", "coordinates": [[[80.1,21.7],[80.2,21.7],[80.2,21.8],[80.1,21.8],[80.1,21.7]]] },
    "properties": { "prospectivity_score": 0.78, "confidence": 0.62, "reserve_min": 150000, "reserve_max": 300000 } },
  { "type": "Feature", "geometry": { "type": "Polygon", "coordinates": [[[85.4,21.5],[85.5,21.5],[85.5,21.6],[85.4,21.6],[85.4,21.5]]] },
    "properties": { "prospectivity_score": 0.45, "confidence": 0.5, "reserve_min": 80000, "reserve_max": 150000 } }
]}